# Made by eph2tle, compiled Feb  2 2025 14:11:09
# Run at Tue Mar  4 17:17:51 2025 UTC
#
#    The following TLEs (Two-Line Elements) were generated by fitting
# a numerically-integrated ephemeris,  based on the orbit given below,
# to the SDP4/SGP4 models.  Each TLE is good for the interval between
# its epoch and the epoch of the subsequent TLE (usually one day).
# The maximum deviation between the numerically integrated ephemerides
# and the TLE-based ephemeris, in kilometers,  is given for each TLE
# as the "worst residual".
#
#    This fitting is done using the 'eph2tle' code packaged with Find_Orb.
# The code has details on how the TLEs were computed :
#
#    https://github.com/Bill-Gray/find_orb/eph2tle.cpp
#
#    Be warned:  the error given is that between the numerically
# integrated ephems and the TLE model.  There will usually be at
# least some additional difference between the ephems and the actual
# motion of the satellite,  especially if the ephemerides are based
# on a short arc.  If the following orbital elements say something
# like "[based on] 10 observations 2015 Jan. 1-13",  and the TLEs
# are for 2015 May,  the extrapolation may be tenuous at best.  If
# your application requires a specific level of accuracy,  you may
# want to contact me;  I can give you some idea as to the fit of the
# underlying data (and possibly TLEs based on newer data).
#
#   You can usually find the underlying observational data,  and the
# fitted orbit,  residuals,  ephemerides,  and sometimes some comments
# about the object,  among the pages listed at
#
#    https://www.projectpluto.com/pluto/mpecs/pseudo.htm
#
#    Also,  if you use a TLE outside the "correct" time range (between
# its MJD and that of the next TLE),  all bets are off.  I've carefully
# computed and minimized the worst error over the "correct" time frame,
# but the ephemeris may (or may not) diverge wildly outside of it.
#
# Ephem range: 60661.000000 60812.000000 1.000000
# Created Tue Mar  4 12:17:48 2025
# Ephemeris start: 17 Dec 2024  0:00:00
# Ephemeris end:   17 May 2025  0:00:00
# Times are all TDT
# Positions/velocities are in equatorial J2000
# Orbital elements:  A11kaLa = A11jh9s = A11hynf
#    Perigee 2025 Jan 17.978714 +/- 4.1698e-5 TT = 23:29:20.9 (JD 2460693.478714)
# A1: (86.8589 +/- 2.0806)e-7   A2: (-17.7402 +/- 5.2512)e-8
# A3: (-36.109 +/- 1.939)e-8 AU/day^2 [1/r^2]
# Epoch 2025 Jan 18.0 TT = JDT 2460693.5                           Find_Orb
# M   5.970466099 +/- 0.01312         (J2000 equator)
# n 280.491975595 +/- 0.0079421       Peri.  258.910452 +/- 0.01270
# a 49887.28609 +/- 0.94169           Node    50.778323 +/- 0.00822
# e   0.59284210 +/- 0.00031229       Incl.   24.466216 +/- 0.001067
# P1848.146m/1.283d          H 32.73  G  0.15   U  9.5
# q 20312.00219 +/- 15.4    Q 79462.56999 +/- 16.348
# 19 of 32 observations 2024 Dec. 31-2025 Feb. 4; mean residual 7".904
#
# Elements after  4 Feb 2025 :
#
# Orbital elements:  A11kaLa = A11jh9s = A11hynf
#    Perigee 2025 Feb 18.019485 +/- 0.00032824 TT =  0:28:03.4 (JD 2460724.519485)
# A1: (923.1531 +/- 3.8899)e-8   A2: (-32.6817 +/- 1.7878)e-8
# A3: (-32.6159 +/- 1.1326)e-8 AU/day^2 [1/r^2]
# Epoch 2025 Feb 18.0 TT = JDT 2460724.5                           Find_Orb
# M 354.531977856 +/- 0.0900          (J2000 equator)
# n 280.632361724 +/- 0.0015345       Peri.  283.886516 +/- 0.02331
# a 49870.64732 +/- 0.18179           Node    45.628965 +/- 0.004254
# e   0.61149037 +/- 0.00025526       Incl.   24.639783 +/- 0.0004673
# P1847.222m/1.283d          H 32.68  G  0.15   U  8.4
# q 19375.22626 +/- 12.752    Q 80366.06838 +/- 12.641
# 21 of 32 observations 2025 Feb. 4-Mar. 3; mean residual 7".514
#
# 1 NoradU COSPAR   Epoch.epoch     dn/dt/2  d2n/dt2/6 BSTAR    T El# C
# 2 NoradU Inclina RAAscNode Eccent  ArgPeri MeanAno  MeanMotion Rev# C

# Worst residual: 97.89 km
# MJD 60661.000000 (2024 Dec 17  0:00)
A11kaLa = A11jh9s = A11hynf
1 79892U 25000ZZU 24352.49919926  .00000000  00000-0  00000-0 0 26200
2 79892 024.1239 050.7905 5361436 238.0739 252.9771 00.77310358    01

# Worst residual: 47.85 km
# MJD 60662.000000 (2024 Dec 18  0:00)
A11kaLa = A11jh9s = A11hynf
1 79892U 25000ZZU 24353.49919926  .00000000  00000-0  00000-0 0 26201
2 79892 024.1419 050.8329 5371207 238.8553 170.6721 00.77135955    00

# Worst residual: 102.33 km
# MJD 60663.000000 (2024 Dec 19  0:00)
A11kaLa = A11jh9s = A11hynf
1 79892U 25000ZZU 24354.49919926  .00000000  00000-0  00000-0 0 26202
2 79892 024.1557 050.8888 5409227 239.5184 088.5367 00.77361098    07

# Worst residual: 82.25 km
# MJD 60664.000000 (2024 Dec 20  0:00)
A11kaLa = A11jh9s = A11hynf
1 79892U 25000ZZU 24355.49919926  .00000000  00000-0  00000-0 0 26203
2 79892 024.1735 050.9452 5426649 240.1831 006.0013 00.77665628    06

# Worst residual: 123.70 km
# MJD 60665.000000 (2024 Dec 21  0:00)
A11kaLa = A11jh9s = A11hynf
1 79892U 25000ZZU 24356.49919926  .00000000  00000-0  00000-0 0 26204
2 79892 024.1971 051.0045 5456060 240.8263 283.3236 00.77452740    00

# Worst residual: 50.86 km
# MJD 60666.000000 (2024 Dec 22  0:00)
A11kaLa = A11jh9s = A11hynf
1 79892U 25000ZZU 24357.49919926  .00000000  00000-0  00000-0 0 26205
2 79892 024.2124 051.0354 5460392 241.4609 201.0606 00.77161806    06

# Worst residual: 95.89 km
# MJD 60667.000000 (2024 Dec 23  0:00)
A11kaLa = A11jh9s = A11hynf
1 79892U 25000ZZU 24358.49919926  .00000000  00000-0  00000-0 0 26206
2 79892 024.2258 051.0724 5490034 242.2326 118.8414 00.77230885    02

# Worst residual: 117.13 km
# MJD 60668.000000 (2024 Dec 24  0:00)
A11kaLa = A11jh9s = A11hynf
1 79892U 25000ZZU 24359.49919926  .00000000  00000-0  00000-0 0 26207
2 79892 024.2373 051.1213 5514311 242.7880 036.6251 00.77598951    06

# Worst residual: 138.18 km
# MJD 60669.000000 (2024 Dec 25  0:00)
A11kaLa = A11jh9s = A11hynf
1 79892U 25000ZZU 24360.49919926  .00000000  00000-0  00000-0 0 26209
2 79892 024.2550 051.1695 5540756 243.5374 313.7675 00.77577710    05

# Worst residual: 73.75 km
# MJD 60670.000000 (2024 Dec 26  0:00)
A11kaLa = A11jh9s = A11hynf
1 79892U 25000ZZU 24361.49919926  .00000000  00000-0  00000-0 0 26200
2 79892 024.2679 051.1834 5548933 244.0864 231.4611 00.77213793    01

# Worst residual: 42.09 km
# MJD 60671.000000 (2024 Dec 27  0:00)
A11kaLa = A11jh9s = A11hynf
1 79892U 25000ZZU 24362.49919926  .00000000  00000-0  00000-0 0 26201
2 79892 024.2770 051.2115 5565459 244.8973 149.1586 00.77143787    08

# Worst residual: 103.20 km
# MJD 60672.000000 (2024 Dec 28  0:00)
A11kaLa = A11jh9s = A11hynf
1 79892U 25000ZZU 24363.49919926  .00000000  00000-0  00000-0 0 26202
2 79892 024.2841 051.2397 5599954 245.4786 067.0513 00.77467763    06

# Worst residual: 102.88 km
# MJD 60673.000000 (2024 Dec 29  0:00)
A11kaLa = A11jh9s = A11hynf
1 79892U 25000ZZU 24364.49919926  .00000000  00000-0  00000-0 0 26203
2 79892 024.2953 051.2700 5617864 246.2137 344.3074 00.77650876    00

# Worst residual: 84.18 km
# MJD 60674.000000 (2024 Dec 30  0:00)
A11kaLa = A11jh9s = A11hynf
1 79892U 25000ZZU 24365.49919926  .00000000  00000-0  00000-0 0 26204
2 79892 024.3033 051.2812 5637517 246.7714 261.8947 00.77342810    05

# Worst residual: 48.51 km
# MJD 60675.000000 (2024 Dec 31  0:00)
A11kaLa = A11jh9s = A11hynf
1 79892U 25000ZZU 24366.49919926  .00000000  00000-0  00000-0 0 26205
2 79892 024.3082 051.2778 5640931 247.5095 179.6796 00.77167982    08

# Worst residual: 99.82 km
# MJD 60676.000000 (2025 Jan  1  0:00)
A11kaLa = A11jh9s = A11hynf
1 79892U 25000ZZU 25001.49919926  .00000000  00000-0  00000-0 0 26202
2 79892 024.3133 051.2878 5673589 248.1843 097.6395 00.77361518    04

# Worst residual: 85.58 km
# MJD 60677.000000 (2025 Jan  2  0:00)
A11kaLa = A11jh9s = A11hynf
1 79892U 25000ZZU 25002.49919926  .00000000  00000-0  00000-0 0 26203
2 79892 024.3177 051.2885 5687523 248.8251 015.3410 00.77686686    04

# Worst residual: 133.72 km
# MJD 60678.000000 (2025 Jan  3  0:00)
A11kaLa = A11jh9s = A11hynf
1 79892U 25000ZZU 25003.49919926  .00000000  00000-0  00000-0 0 26204
2 79892 024.3233 051.2892 5712185 249.4921 292.8266 00.77520326    08

# Worst residual: 59.23 km
# MJD 60679.000000 (2025 Jan  4  0:00)
A11kaLa = A11jh9s = A11hynf
1 79892U 25000ZZU 25004.49919926  .00000000  00000-0  00000-0 0 26205
2 79892 024.3266 051.2780 5711179 250.1006 210.7942 00.77234307    06

# Worst residual: 70.21 km
# MJD 60680.000000 (2025 Jan  5  0:00)
A11kaLa = A11jh9s = A11hynf
1 79892U 25000ZZU 25005.49919926  .00000000  00000-0  00000-0 0 26206
2 79892 024.3285 051.2644 5733131 250.8795 128.8235 00.77290936    04

# Worst residual: 95.83 km
# MJD 60681.000000 (2025 Jan  6  0:00)
A11kaLa = A11jh9s = A11hynf
1 79892U 25000ZZU 25006.49919926  .00000000  00000-0  00000-0 0 26207
2 79892 024.3309 051.2580 5754657 251.4447 046.9517 00.77635618    00

# Worst residual: 133.78 km
# MJD 60682.000000 (2025 Jan  7  0:00)
A11kaLa = A11jh9s = A11hynf
1 79892U 25000ZZU 25007.49919926  .00000000  00000-0  00000-0 0 26208
2 79892 024.3339 051.2270 5772249 252.2010 324.5062 00.77684080    08

# Worst residual: 74.11 km
# MJD 60683.000000 (2025 Jan  8  0:00)
A11kaLa = A11jh9s = A11hynf
1 79892U 25000ZZU 25008.49919926  .00000000  00000-0  00000-0 0 26209
2 79892 024.3349 051.2037 5777754 252.7262 242.6143 00.77346371    08

# Worst residual: 38.43 km
# MJD 60684.000000 (2025 Jan  9  0:00)
A11kaLa = A11jh9s = A11hynf
1 79892U 25000ZZU 25009.49919926  .00000000  00000-0  00000-0 0 26200
2 79892 024.3369 051.1707 5786997 253.5080 160.7819 00.77281871    02

# Worst residual: 91.25 km
# MJD 60685.000000 (2025 Jan 10  0:00)
A11kaLa = A11jh9s = A11hynf
1 79892U 25000ZZU 25010.49919926  .00000000  00000-0  00000-0 0 26202
2 79892 024.3364 051.1322 5816758 254.1350 079.1521 00.77548812    00

# Worst residual: 88.26 km
# MJD 60686.000000 (2025 Jan 11  0:00)
A11kaLa = A11jh9s = A11hynf
1 79892U 25000ZZU 25011.49919926  .00000000  00000-0  00000-0 0 26203
2 79892 024.3430 051.0984 5827241 254.8367 357.0567 00.77793468    08
